[{"OBJECT_NAME":"SHIYAN-1 (SY-1)","OBJECT_ID":"2004-012A","EPOCH":"2026-03-09T17:40:34.066560","MEAN_MOTION":15.31043463,"ECCENTRICITY":0.00058726,"INCLINATION":97.8764,"RA_OF_ASC_NODE":140.5238,"ARG_OF_PERICENTER":23.6952,"MEAN_ANOMALY":336.4557,"EPHEMERIS_TYPE":0,"CLASSIFICATION_TYPE":"U","NORAD_CAT_ID":28220,"ELEMENT_SET_NO":999,"REV_AT_EPOCH":19586,"BSTAR":0.00054854449,"MEAN_MOTION_DOT":0.00016393,"MEAN_MOTION_DDOT":0},{"OBJECT_NAME":"STARLINK-36048","OBJECT_ID":"2025-270R","EPOCH":"2026-03-09T00:03:38.372544","MEAN_MOTION":15.27580914,"ECCENTRICITY":6.277e-5,"INCLINATION":42.9969,"RA_OF_ASC_NODE":59.8093,"ARG_OF_PERICENTER":273.9101,"MEAN_ANOMALY":86.1679,"EPHEMERIS_TYPE":0,"CLASSIFICATION_TYPE":"U","NORAD_CAT_ID":66603,"ELEMENT_SET_NO":999,"REV_AT_EPOCH":1750,"BSTAR":0.00094906375,"MEAN_MOTION_DOT":0.00025947,"MEAN_MOTION_DDOT":0}]
